GALAXY 19 (G-19)        
1 33376U 08045A   24304.21203875 -.00000127  00000+0  00000+0 0  9999
2 33376   0.0241 269.5693 0002879 317.0462 151.7576  1.00271628 58877
ASTRA 1M                
1 33436U 08057A   24302.56654407  .00000109  00000+0  00000+0 0  9995
2 33436   0.0737  20.7427 0005661 204.1103  32.5310  1.00274510 39757
FENGYUN 2D DEB          
1 33458U 06053D   24302.79243323 -.00000080  00000+0  00000+0 0  9998
2 33458  10.5890  41.9160 0020345  25.9958 328.1745  1.00299972 59352
EUTELSAT HOTBIRD 13C    
1 33459U 08065A   24303.91975213 -.00000088  00000+0  00000+0 0  9997
2 33459   1.4100  85.9281 0005723 145.3155 126.1295  1.00272381 41371
EXPRESS-AM44            
1 33595U 09007A   24303.92009965 -.00000076  00000+0  00000+0 0  9995
2 33595   1.9232  85.6374 0004279 136.9516 136.4209  1.00272502 46318
NSS-9                   
1 33749U 09008A   24303.62833490  .00000082  00000+0  00000+0 0  9998
2 33749   0.0273 356.6157 0002026 223.5928 227.5321  1.00274626 57545
EUTELSAT 33E            
1 33750U 09008B   24298.54114293 -.00000156  00000+0  00000+0 0  9990
2 33750   1.1173  87.2836 0005377 133.2123 272.3317  1.00270722 57428
TELSTAR 11N             
1 34111U 09009A   24303.98630257 -.00000240  00000+0  00000+0 0  9995
2 34111   0.0199 252.0733 0002280 316.3048 147.9316  1.00262840 57455
RADUGA-1 8              
1 34264U 09010A   24295.63704559 -.00000202  00000+0  00000+0 0  9993
2 34264  10.9237  47.1565 0010701  21.5221 352.4712  0.99832940 57148
SL-12 R/B(2)            
1 34265U 09010B   24303.93130722  .00000142  00000+0  00000+0 0  9994
2 34265  10.9362  47.0538 0000943 244.0224 128.7412  0.99998483 57224
WGS F2 (USA 204)        
1 34713U 09017A   24303.50441587  .00000077  00000+0  00000+0 0  9993
2 34713   0.0130 252.0880 0000176 115.2399 270.0640  1.00268651 39643
SES-7 (PROTOSTAR 2)     
1 34941U 09027A   24303.69364030 -.00000336  00000+0  00000+0 0  9993
2 34941   0.1008  79.0800 0002180 186.7826 130.6281  1.00270584 56655
MEASAT-3A               
1 35362U 09032A   24303.88253340 -.00000101  00000+0  00000+0 0  9999
2 35362   0.0108 130.9989 0002972 131.5459 253.8075  1.00270105  2061
GOES 14                 
1 35491U 09033A   24304.21263334 -.00000054  00000+0  00000+0 0  9992
2 35491   0.1343  91.4810 0003540 101.4805 174.0445  1.00271991 56195
FM-5                    
1 35493U 09034A   24303.90515622 -.00000189  00000+0  00000+0 0  9999
2 35493   0.0186 268.8108 0000699 242.6562 126.9936  1.00271140 40674
TERRESTAR-1             
1 35496U 09035A   24303.39981181 -.00000046  00000+0  00000+0 0  9995
2 35496   4.6853  48.0453 0002827 176.2957 206.8541  1.00269413 56187
ASIASAT 5               
1 35696U 09042A   24304.01366991 -.00000297  00000+0  00000+0 0  9999
2 35696   0.0673  89.0598 0001613 116.9294 298.2627  1.00274643 55709
JCSAT-12 (JCSAT-RA)     
1 35755U 09044A   24303.94842269 -.00000317  00000+0  00000+0 0  9998
2 35755   0.0997  88.8764 0000830  61.1674   2.2185  1.00270955 55646
OPTUS D3                
1 35756U 09044B   24304.16768544 -.00000135  00000+0  00000+0 0  9995
2 35756   0.3535  84.6625 0002862 154.2857  16.4358  1.00272121 55660
NIMIQ 5                 
1 35873U 09050A   24303.90784951 -.00000246  00000+0  00000+0 0  9996
2 35873   0.0125 266.7607 0003165 324.7983  61.3196  1.00270795 55378
AMAZONAS 2              
1 35942U 09054A   24303.91019528 -.00000272  00000+0  00000+0 0  9998
2 35942   0.2671  93.3068 0004790 129.3658  82.9604  1.00272616 55211
COMSATBW-1              
1 35943U 09054B   24304.07770080  .00000036  00000+0  00000+0 0  9991
2 35943   0.0537  74.2623 0003717 159.5315 256.1082  1.00270877 55299
NSS-12                  
1 36032U 09058A   24303.93347924  .00000081  00000+0  00000+0 0  9996
2 36032   0.0836  77.8908 0003792 150.5244 203.4085  1.00273358 54947
THOR 6                  
1 36033U 09058B   24303.92209789  .00000001  00000+0  00000+0 0  9994
2 36033   0.0183 209.3209 0002411  42.8431 117.7001  1.00272174 55038
INTELSAT 14 (IS-14)     
1 36097U 09064A   24303.47132749 -.00000264  00000+0  00000+0 0  9994
2 36097   0.0191 283.8982 0002431 308.8472 290.2464  1.00271258 54631
EUTELSAT 36B            
1 36101U 09065A   24303.64359834  .00000159  00000+0  00000+0 0  9998
2 36101   0.0722 350.3911 0000683 147.5839 168.8536  1.00430396 54844
INTELSAT 15 (IS-15)     
1 36106U 09067A   24303.93912647 -.00000175  00000+0  00000+0 0  9993
2 36106   0.0191 269.3212 0002269 315.4468 237.2380  1.00271802 54638
WGS F3 (USA 211)        
1 36108U 09068A   24303.62468441  .00000061  00000+0  00000+0 0  9993
2 36108   0.2070  88.4131 0000459 196.2197 158.5236  1.00272108 40620
DIRECTV 12              
1 36131U 09075A   24303.54438087 -.00000094  00000+0  00000+0 0  9998
2 36131   0.0390  87.4610 0000289 209.6632 194.5177  1.00271660 40585
BEIDOU-2 G1             
1 36287U 10001A   24303.95016031 -.00000268  00000+0  00000+0 0  9990
2 36287   2.9128  59.5111 0003548 262.9773 198.7921  1.00273975 54200
RADUGA-1M 2             
1 36358U 10002A   24304.08187108 -.00000171  00000+0  00000+0 0  9992
2 36358   2.0656  86.5870 0003385 153.1081 273.6211  1.00275399 54049
SDO                     
1 36395U 10005A   24302.44146454 -.00000034  00000+0  00000+0 0  9991
2 36395  33.4007  95.5087 0001638 162.6700 196.4150  1.00273650 54075
INTELSAT 16 (IS-16)     
1 36397U 10006A   24303.90706758 -.00000234  00000+0  00000+0 0  9997
2 36397   0.0177 283.3456 0002574 306.0436  59.6931  1.00270884 53681
EWS-G2 (GOES 15)        
1 36411U 10008A   24303.93443493  .00000047  00000+0  00000+0 0  9994
2 36411   0.2500 273.7503 0006842 321.8945 200.9009  1.00275068 53673
ECHOSTAR 14             
1 36499U 10010A   24304.09042285  .00000011  00000+0  00000+0 0  9996
2 36499   0.0164 258.6344 0001961 318.2764  95.6714  1.00271582 53572
SES-1                   
1 36516U 10016A   24303.97370490 -.00000104  00000+0  00000+0 0  9994
2 36516   0.0292  12.6628 0002763 213.3670  62.3230  1.00272142 53161
ASTRA 3B                
1 36581U 10021A   24303.99794454  .00000148  00000+0  00000+0 0  9991
2 36581   0.0169  95.6182 0002985 113.6302 212.3340  1.00271922 52682
COMSATBW-2              
1 36582U 10021B   24303.92487807  .00000100  00000+0  00000+0 0  9994
2 36582   0.0337  69.9582 0003477 174.0892 140.9251  1.00278041 52989
BEIDOU-2 G3             
1 36590U 10024A   24304.08100226 -.00000122  00000+0  00000+0 0  9996
2 36590   3.1136  61.8624 0004251 333.5494 112.2103  1.00274738 52817
BADR-5                  
1 36592U 10025A   24303.57001060  .00000154  00000+0  00000+0 0  9992
2 36592   0.0248 170.6596 0005124  28.9508  70.0104  1.00275552 52926
COMS 1                  
1 36744U 10032A   24303.94746701 -.00000331  00000+0  00000+0 0  9996
2 36744   3.2948  83.0057 0000828 158.7260 266.2547  1.00269492 52688
ARABSAT-5A              
1 36745U 10032B   24303.57087941  .00000163  00000+0  00000+0 0  9992
2 36745   0.0673  48.5659 0003440 148.3006  77.5479  1.00270583 52656
ECHOSTAR 15             
1 36792U 10034A   24304.07618966 -.00000270  00000+0  00000+0 0  9999
2 36792   0.0162 257.0397 0002123 293.4560 174.1365  1.00266285 52439
BEIDOU-2 IGSO-1         
1 36828U 10036A   24303.56864837 -.00000061  00000+0  00000+0 0  9992
2 36828  54.2531 168.3474 0042555 206.5572 333.6615  1.00292335 52122
NILESAT 201             
1 36830U 10037A   24303.22271628 -.00000050  00000+0  00000+0 0  9997
2 36830   0.0366 126.0504 0005522  77.3826 267.8237  1.00270749 52318
RASCOM-QAF 1R           
1 36831U 10037B   24303.63690855  .00000028  00000+0  00000+0 0  9994
2 36831   0.0278 118.8621 0006833 112.0741  39.7259  1.00271373 52324
AEHF-1 (USA 214)        
1 36868U 10039A   24303.57070566  .00000163  00000+0  00000+0 0  9990
2 36868   6.7234  75.5863 0003800 131.2826  66.9010  1.00271828 52461
ZHONGXING-6A            
1 37150U 10042A   24304.10356767  .00000053  00000+0  00000+0 0  9997
2 37150   2.6803  84.7092 0002848 166.7648  17.7727  0.99703905 51871
XM-5                    
1 37185U 10053A   24303.54194822 -.00000014  00000+0  00000+0 0  9994
2 37185   0.0071 192.0016 0000176 311.8862 334.4215  1.00270617 51479
BSAT-3B                 
1 37207U 10056B   24303.01467774 -.00000344  00000+0  00000+0 0  9999
2 37207   0.0463  22.0583 0002878 262.6830 228.2352  1.00268938 46131
BEIDOU-2 G4             
1 37210U 10057A   24304.16846736 -.00000099  00000+0  00000+0 0  9997
2 37210   2.1707  69.9344 0008961 173.3258  16.3651  1.00270631 51312
SKYTERRA 1              
1 37218U 10061A   24303.90211542 -.00000105  00000+0  00000+0 0  9990
2 37218   3.8809  49.3959 0005576 204.9340   7.8536  1.00272475 51222
HYLAS 1                 
1 37237U 10065A   24304.16820672 -.00000108  00000+0  00000+0 0  9997
2 37237   4.1201  80.2393 0002662 162.9152  15.1116  1.00272453 51048
INTELSAT 17 (IS-17)     
1 37238U 10065B   24303.93530373  .00000008  00000+0  00000+0 0  9996
2 37238   0.0114 245.5378 0002684 344.0604 211.8896  1.00274087 50959
BEIDOU-2 IGSO-2         
1 37256U 10068A   24303.87193399 -.00000209  00000+0  00000+0 0  9999
2 37256  48.6349 279.1736 0039117 218.6462 321.6263  1.00260045 50819
EUTELSAT KA-SAT 9A      
1 37258U 10069A   24303.63812490  .00000072  00000+0  00000+0 0  9993
2 37258   0.0768 289.7666 0001509 321.7246  25.7813  1.00272086 38038
HISPASAT 30W-5          
1 37264U 10070A   24303.46577035 -.00000207  00000+0  00000+0 0  9997
2 37264   0.0467  88.9285 0004436 107.5010 339.5540  1.00274781 47215
KOREASAT 6              
1 37265U 10070B   24303.94529499 -.00000352  00000+0  00000+0 0  9993
2 37265   0.0330 340.4908 0002277  14.4491 140.1499  1.00271303 50808
ELEKTRO-L 1 (GOMS 2)    
1 37344U 11001A   24303.63569223 -.00000022  00000+0  00000+0 0  9995
2 37344   8.3228  60.3199 0004014  34.2717 170.1069  1.00246932 50519
BEIDOU-2 IGSO-3         
1 37384U 11013A   24303.70000397 -.00000198  00000+0  00000+0 0  9996
2 37384  61.5547  45.8204 0032321 178.5813 174.0466  1.00275400 49686
